*******************************************************************************
Ephemeris / PORT_LOGIN Sat Mar 13 15:02:16 2021 Pasadena, USA    / Horizons
*******************************************************************************
Target body name: Neptune (899)                   {source: nep096}
Center body name: Earth (399)                     {source: nep096}
Center-site name: Greenwich
*******************************************************************************
Start time      : A.D. 2021-Mar-13 00:00:00.0000 TDB
Stop  time      : A.D. 2025-Mar-13 00:00:00.0000 TDB
Step-size       : 1440 minutes
*******************************************************************************
Center geodetic : 0.00000000,51.4773207,0.0670693 {E-lon(deg),Lat(deg),Alt(km)}
Center cylindric: 0.00000000,3980.66470,4966.8438 {E-lon(deg),Dxy(km),Dz(km)}
Center pole/equ : High-precision EOP model        {East-longitude positive}
Center radii    : 6378.1 x 6378.1 x 6356.8 km     {Equator, meridian, pole}    
Output units    : AU-D
Output type     : GEOMETRIC cartesian states
Output format   : 3 (position, velocity, LT, range, range-rate)
EOP file        : eop.210312.p210603
EOP coverage    : DATA-BASED 1962-JAN-20 TO 2021-MAR-12. PREDICTS-> 2021-JUN-02
Reference frame : ICRF
*******************************************************************************
            JDTDB,            Calendar Date (TDB),                      X,                      Y,                      Z,                     VX,                     VY,                     VZ,                     LT,                     RG,                     RR,
**************************************************************************************************************************************************************************************************************************************************************************
$$SOE
2460216.500000000, A.D. 2023-Sep-29 00:00:00.0000,  2.882843342376847E+01, -1.743741682892402E+00, -1.458332426283103E+00,  2.077500897180053E-03, -1.289318702167341E-02, -5.591755279645890E-03,  1.670159615950804E-01,  2.891791732111523E+01,  3.130520119277033E-03,
2460217.500000000, A.D. 2023-Sep-30 00:00:00.0000,  2.883063644592317E+01, -1.756455861116367E+00, -1.463918670403393E+00,  2.371489493108772E-03, -1.286609443756547E-02, -5.580499773866167E-03,  1.670347194213483E-01,  2.892116513805416E+01,  3.427928153364120E-03,
2460218.500000000, A.D. 2023-Oct-01 00:00:00.0000,  2.883313026405975E+01, -1.769141281931484E+00, -1.469492605328655E+00,  2.664842387388929E-03, -1.283481480462281E-02, -5.567082861697267E-03,  1.670551750288228E-01,  2.892470691669646E+01,  3.724260225499835E-03,
2460219.500000000, A.D. 2023-Oct-02 00:00:00.0000,  2.883591446049280E+01, -1.781793598288438E+00, -1.475051951690853E+00,  2.958012569619857E-03, -1.279894184205783E-02, -5.551357930030982E-03,  1.670773233464151E-01,  2.892854177901033E+01,  4.019926490151293E-03,
2460220.500000000, A.D. 2023-Oct-03 00:00:00.0000,  2.883898907641212E+01, -1.794408152244676E+00, -1.480594546439084E+00,  3.251375283221869E-03, -1.275830799701673E-02, -5.533675971125480E-03,  1.671011618151577E-01,  2.893266928192428E+01,  4.315298993081797E-03,
2460221.500000000, A.D. 2023-Oct-04 00:00:00.0000,  2.884235430485309E+01, -1.806980296496750E+00, -1.486118672981739E+00,  3.544822458567168E-03, -1.271308579243838E-02, -5.514485089397878E-03,  1.671266888316517E-01,  2.893708914781841E+01,  4.610294401560254E-03,
2460222.500000000, A.D. 2023-Oct-05 00:00:00.0000,  2.884600999479790E+01, -1.819505628012440E+00, -1.491622888742503E+00,  3.837828004288576E-03, -1.266352959853337E-02, -5.493824660502174E-03,  1.671539009300673E-01,  2.894180077660286E+01,  4.904397761944000E-03,
2460223.500000000, A.D. 2023-Oct-06 00:00:00.0000,  2.884995545153952E+01, -1.831979888836767E+00, -1.497105526496159E+00,  4.129918194690143E-03, -1.260963465589893E-02, -5.471243096450606E-03,  1.671827914533362E-01,  2.894680301564203E+01,  5.197105228708885E-03,
2460224.500000000, A.D. 2023-Oct-07 00:00:00.0000,  2.885418971426407E+01, -1.844398644165651E+00, -1.502564389607549E+00,  4.421064484513472E-03, -1.255107557519040E-02, -5.446229718652095E-03,  1.672133519430630E-01,  2.895209440041011E+01,  5.488332857172043E-03,
2460225.500000000, A.D. 2023-Oct-08 00:00:00.0000,  2.885871200497491E+01, -1.856757082563309E+00, -1.507996962681528E+00,  4.711600086914557E-03, -1.248748969152550E-02, -5.418714097561290E-03,  1.672455747090840E-01,  2.895767359939656E+01,  5.778376800383134E-03,
2460226.500000000, A.D. 2023-Oct-09 00:00:00.0000,  2.886352186967643E+01, -1.869050158253609E+00, -1.513400924529309E+00,  5.001751434147095E-03, -1.241880973203085E-02, -5.389112713481377E-03,  1.672794538445710E-01,  2.896353958986580E+01,  6.067470718448657E-03,
2460227.500000000, A.D. 2023-Oct-10 00:00:00.0000,  2.886861885881504E+01, -1.881272938573519E+00, -1.518774436551813E+00,  5.291273650076997E-03, -1.234530111265754E-02, -5.357875636927540E-03,  1.673149836034808E-01,  2.896969137692122E+01,  6.355402456299977E-03,
2460228.500000000, A.D. 2023-Oct-11 00:00:00.0000,  2.887400207312480E+01, -1.893420805551790E+00, -1.524115911715207E+00,  5.579573267827137E-03, -1.226726245963893E-02, -5.325003756992448E-03,  1.673521557976416E-01,  2.897612754282489E+01,  6.641592212147301E-03,
2460229.500000000, A.D. 2023-Oct-12 00:00:00.0000,  2.887967004319813E+01, -1.905489309749383E+00, -1.529423507838234E+00,  5.866188437986986E-03, -1.218469716082472E-02, -5.290034015073839E-03,  1.673909589003010E-01,  2.898284609178148E+01,  6.925548251094937E-03,
2460230.500000000, A.D. 2023-Oct-13 00:00:00.0000,  2.888562106267780E+01, -1.917473835390826E+00, -1.534694874534229E+00,  6.151126229936721E-03, -1.209730041537755E-02, -5.252510795606769E-03,  1.674313797606935E-01,  2.898984474680652E+01,  7.207225896974444E-03,
2460231.500000000, A.D. 2023-Oct-14 00:00:00.0000,  2.889185362499810E+01, -1.929369431709201E+00, -1.539927420521036E+00,  6.434710017669096E-03, -1.200477403177569E-02, -5.212454509321893E-03,  1.674734061315527E-01,  2.899712138735157E+01,  7.486920605957456E-03,
2460232.500000000, A.D. 2023-Oct-15 00:00:00.0000,  2.889836650387543E+01, -1.941170994101734E+00, -1.545118827401391E+00,  6.717092516827521E-03, -1.190714224501625E-02, -5.170338895007455E-03,  1.675170273565920E-01,  2.900467416833779E+01,  7.764803259088572E-03,
2460233.500000000, A.D. 2023-Oct-16 00:00:00.0000,  2.890515838975048E+01, -1.952873617153146E+00, -1.550267281997890E+00,  6.997939287859627E-03, -1.180474549538140E-02, -5.126603692446998E-03,  1.675622324882694E-01,  2.901250119425708E+01,  8.040579609555502E-03,
2460234.500000000, A.D. 2023-Oct-17 00:00:00.0000,  2.891222745486003E+01, -1.964472765505764E+00, -1.555371192058773E+00,  7.276616617266092E-03, -1.169791985123141E-02, -5.081210763550653E-03,  1.676090077702250E-01,  2.902060008326951E+01,  8.313632655808572E-03,
2460235.500000000, A.D. 2023-Oct-18 00:00:00.0000,  2.891957129783993E+01, -1.975964099358976E+00, -1.560428688289251E+00,  7.552690655730839E-03, -1.158669373173564E-02, -5.033702477522580E-03,  1.676573361023962E-01,  2.902896787459104E+01,  8.583501886246929E-03,
2460236.500000000, A.D. 2023-Oct-19 00:00:00.0000,  2.892718732635610E+01, -1.987343151104039E+00, -1.565437437437925E+00,  7.826220610839152E-03, -1.147082102244986E-02, -4.983704069224568E-03,  1.677071990593249E-01,  2.903760137795251E+01,  8.850203597940420E-03,
2460237.500000000, A.D. 2023-Oct-20 00:00:00.0000,  2.893507318693768E+01, -1.998605205243361E+00, -1.570394969923166E+00,  8.097549570913885E-03, -1.135011610723826E-02, -4.931350364700202E-03,  1.677585794159337E-01,  2.904649761092421E+01,  9.114068138438212E-03,
2460238.500000000, A.D. 2023-Oct-21 00:00:00.0000,  2.894322680530365E+01, -2.009745521614371E+00, -1.575299189843163E+00,  8.366814451345612E-03, -1.122473934767737E-02, -4.877190856720261E-03,  1.678114616265680E-01,  2.905565388185950E+01,  9.375266991112024E-03,
2460239.500000000, A.D. 2023-Oct-22 00:00:00.0000,  2.895164601088334E+01, -2.020759684420381E+00, -1.580148546448541E+00,  8.633684910102614E-03, -1.109513690386517E-02, -4.821671171897402E-03,  1.678658298616763E-01,  2.906506744995647E+01,  9.633521470785281E-03,
2460240.500000000, A.D. 2023-Oct-23 00:00:00.0000,  2.896032815416337E+01, -2.031643725943637E+00, -1.584941695332190E+00,  8.897609828533378E-03, -1.096169537325666E-02, -4.764730395817589E-03,  1.679216657571645E-01,  2.907473513557082E+01,  9.888302630569149E-03,
2460241.500000000, A.D. 2023-Oct-24 00:00:00.0000,  2.896927013870939E+01, -2.042393904118311E+00, -1.589677006488225E+00,  9.158320777783198E-03, -1.082446078063980E-02, -4.705926750808256E-03,  1.679789483604744E-01,  2.908465331087954E+01,  1.013931923960632E-02,
2460242.500000000, A.D. 2023-Oct-25 00:00:00.0000,  2.897846886143410E+01, -2.053006365872022E+00, -1.594352431140551E+00,  9.416067575340185E-03, -1.068320972653132E-02, -4.644957769659700E-03,  1.680376564867466E-01,  2.909481830783792E+01,  1.038678486048015E-02,
2460243.500000000, A.D. 2023-Oct-26 00:00:00.0000,  2.898792163311227E+01, -2.063477040235679E+00, -1.598965864106834E+00,  9.671344889107732E-03, -1.053779155621349E-02, -4.582033110523985E-03,  1.680977712076138E-01,  2.910522684910079E+01,  1.063118988212890E-02,
2460244.500000000, A.D. 2023-Oct-27 00:00:00.0000,  2.899762616901288E+01, -2.073801857139928E+00, -1.603515617925899E+00,  9.924390446385644E-03, -1.038837433066739E-02, -4.517705329463029E-03,  1.681592760370299E-01,  2.911587608019773E+01,  1.087281056837249E-02,
2460245.500000000, A.D. 2023-Oct-28 00:00:00.0000,  2.900758018063869E+01, -2.083977042596861E+00, -1.608000505810855E+00,  1.017496466119100E-02, -1.023533387796383E-02, -4.452330385448919E-03,  1.682221547343718E-01,  2.912676318915203E+01,  1.111145277213740E-02,
